SARSAT 7 (NOAA 15)      
1 25338U 98030A   24262.51508083  .00000514  00000+0  23003-3 0  9997
2 25338  98.5643 287.6784 0011214  56.3036 303.9212 14.26712262370746
GPS BIIR-08             
1 27663U 03005A   24261.93505623  .00000022  00000+0  00000+0 0  9992
2 27663  55.0716 240.3038 0137837  47.6929 322.4010  2.00569436158535
GPS BIIR-11             
1 28190U 04009A   24261.20857358 -.00000009  00000+0  00000+0 0  9994
2 28190  55.3747 301.3613 0098877 152.8622 207.0159  2.00556424150148
GPS BIIR-13             
1 28474U 04045A   24261.23942618 -.00000081  00000+0  00000+0 0  9996
2 28474  55.4077 350.5278 0163698 294.6978 133.9234  2.00562026145630
SARSAT 10 (NOAA 18)     
1 28654U 05018A   24262.44786280  .00000536  00000+0  30880-3 0  9999
2 28654  98.8685 338.6183 0014787 155.6836 204.5037 14.13332180996432
GPS BIIR-14M            
1 28874U 05038A   24261.33670730 -.00000006  00000+0  00000+0 0  9994
2 28874  55.4202 298.8207 0137706 285.0978 189.4596  2.00549165139049
METEOSAT-9 (MSG-2)      
1 28912U 05049B   24261.60018733  .00000123  00000+0  00000+0 0  9997
2 28912   7.8951  60.0588 0001694 184.8162  13.9157  1.00268881   618
GOES 13                 
1 29155U 06018A   24262.42144017 -.00000222  00000+0  00000+0 0  9991
2 29155   2.8641  84.1439 0066390 256.1943 340.1485  0.98904016 67081
GPS BIIR-16M            
1 29601U 06052A   24262.23139206  .00000021  00000+0  00000+0 0  9994
2 29601  55.1048 239.2763 0084602  83.6208 277.3176  2.00572710130676
GPS BIIR-17M            
1 32260U 07047A   24262.03835156  .00000045  00000+0  00000+0 0  9995
2 32260  53.6563 106.4019 0158799  77.4772 284.3903  2.00559548124056
GPS BIIR-18M            
1 32384U 07062A   24261.37675509 -.00000008  00000+0  00000+0 0  9999
2 32384  55.5615 299.6948 0028229 157.2707 214.8500  2.00552416122727
SARSAT 12 (NOAA 19)     
1 33591U 09005A   24262.48342940  .00000466  00000+0  27333-3 0  9991
2 33591  99.0380 319.2324 0014199  33.2722 326.9340 14.13121656804806
GOES 14                 
1 35491U 09033A   24261.64110799 -.00000075  00000+0  00000+0 0  9990
2 35491   0.0228 133.1511 0004065  31.8694 314.4311  1.00269972   202
GOES 15                 
1 36411U 10008A   24262.46155383  .00000030  00000+0  00000+0 0  9996
2 36411   0.3650 274.7115 0005954 303.8291   6.8300  1.00269451 53246
GSAT0101 (GALILEO-PFM)  
1 37846U 11060A   24255.36462662 -.00000082  00000+0  00000+0 0  9998
2 37846  57.1268 359.2065 0000809  73.8529 286.1815  1.70475845 80145
GSAT0102 (GALILEO-FM2)  
1 37847U 11060B   24254.66872722 -.00000083  00000+0  00000+0 0  9994
2 37847  57.1278 359.2253 0001741 310.7991  27.6702  1.70475295 80252
LUCH 5A                 
1 37951U 11074B   24262.47375984 -.00000052  00000+0  00000+0 0  9997
2 37951   7.1201  83.4841 0004555  95.9959 155.9713  1.00269014 46803
METEOSAT-10 (MSG-3)     
1 38552U 12035B   24262.37785324 -.00000012  00000+0  00000+0 0  9991
2 38552   3.1733  61.4789 0000704 218.6204 213.8208  1.00273117 44836
SARSAT 13 (METOP-B)     
1 38771U 12049A   24262.43920339  .00000467  00000+0  23297-3 0  9993
2 38771  98.6188 317.5271 0001259 112.6605 247.4705 14.21512951622798
GPS BIIF-3              
1 38833U 12053A   24262.13606110  .00000021  00000+0  00000+0 0  9991
2 38833  53.5179 169.6727 0157355  57.3656 304.1843  2.00559954 87550
GSAT0103 (GALILEO-FM3)  
1 38857U 12055A   24261.27000629  .00000043  00000+0  00000+0 0  9990
2 38857  55.4451 119.0735 0002332 274.5800  85.5065  1.70473639 74133
GPS BIIF-4              
1 39166U 13023A   24261.99829790 -.00000007  00000+0  00000+0 0  9998
2 39166  55.0328 294.8373 0124301  44.9710 316.0946  2.00562406 83096
INSAT-3D                
1 39216U 13038B   24261.97441590 -.00000347  00000+0  00000+0 0  9993
2 39216   0.2694  92.4742 0001746 101.9467 283.3311  1.00271735 40919
GPS BIIF-5              
1 39533U 14008A   24260.99723064  .00000009  00000+0  00000+0 0  9997
2 39533  53.5999 175.3298 0073194 221.1376 138.3322  2.00573657 76882
LUCH 5V                 
1 39727U 14023A   24261.89601503 -.00000275  00000+0  00000+0 0  9998
2 39727   3.5260  75.3210 0003262 143.0330 196.1961  1.00276036 37964
GPS BIIF-6              
1 39741U 14026A   24261.27867001 -.00000083  00000+0  00000+0 0  9993
2 39741  56.7016 356.3022 0032010 313.4274  46.3401  2.00561546 75742
GPS BIIF-7              
1 40105U 14045A   24260.87052590  .00000055  00000+0  00000+0 0  9992
2 40105  54.9703 113.9437 0029001 115.4212 244.9799  2.00572533 73276
GSAT0201 (GALILEO 5)    
1 40128U 14050A   24262.33290668 -.00000032  00000+0  00000+0 0  9992
2 40128  49.5634 299.3151 1613510 154.9027 213.9150  1.85519370 68445
GSAT0202 (GALILEO 6)    
1 40129U 14050B   24260.97389361 -.00000018  00000+0  00000+0 0  9994
2 40129  49.5812 298.4480 1612492 155.6468 212.9310  1.85520089 68642
GPS BIIF-8              
1 40294U 14068A   24261.74382269 -.00000020  00000+0  00000+0 0  9995
2 40294  56.5016  55.6335 0055147  65.4304 295.1574  2.00565619 72427
GLONASS-K 2             
1 40315U 14075A   24261.10793343  .00000018  00000+0  00000+0 0  9992
2 40315  63.6214 212.4812 0020511 210.2363 149.6214  2.13101331 76255
GPS BIIF-9              
1 40534U 15013A   24261.87357427  .00000015  00000+0  00000+0 0  9998
2 40534  53.3164 230.5563 0091001  30.5344 329.9588  2.00559928 69047
GSAT0203 (GALILEO 7)    
1 40544U 15017A   24257.49000532 -.00000083  00000+0  00000+0 0  9994
2 40544  56.9213 359.0711 0004030 238.4834 121.5017  1.70476228 58265
GSAT0204 (GALILEO 8)    
1 40545U 15017B   24257.74443920 -.00000083  00000+0  00000+0 0  9995
2 40545  56.9278 359.0800 0004297 223.8405 136.1498  1.70475599 21314
GPS BIIF-10             
1 40730U 15033A   24261.53682376 -.00000002  00000+0  00000+0 0  9992
2 40730  54.5157 293.2834 0095727  19.7628 340.6711  2.00562206 67207
METEOSAT-11 (MSG-4)     
1 40732U 15034A   24262.39493892  .00000055  00000+0  00000+0 0  9990
2 40732   1.6078  70.6545 0001330 178.8982 259.6788  1.00273886 33621
GSAT0205 (GALILEO 9)    
1 40889U 15045A   24259.85884388  .00000040  00000+0  00000+0 0  9990
2 40889  55.1816 239.2639 0003538  10.1215 349.8637  1.70473158 56119
GSAT0206 (GALILEO 10)   
1 40890U 15045B   24260.66607277  .00000034  00000+0  00000+0 0  9996
2 40890  55.1804 239.2369 0002091 337.7414  22.2214  1.70473144 56152
GPS BIIF-11             
1 41019U 15062A   24261.59719165 -.00000019  00000+0  00000+0 0  9996
2 41019  56.4812  55.4933 0098381 224.6403 134.5797  2.00562532 65048
ELEKTRO-L 2             
1 41105U 15074A   24262.37489931 -.00000121  00000+0  00000+0 0  9991
2 41105   5.0744  78.3184 0002764 158.3767 241.5895  1.00271808 32130
GSAT0209 (GALILEO 12)   
1 41174U 15079A   24262.00928484  .00000042  00000+0  00000+0 0  9994
2 41174  55.4645 118.7633 0002709 352.3346   7.7740  1.70473950 54494
GSAT0208 (GALILEO 11)   
1 41175U 15079B   24261.05592795  .00000043  00000+0  00000+0 0  9992
2 41175  55.4624 118.7872 0002341 355.2678   4.8429  1.70473847 54317
GPS BIIF-12             
1 41328U 16007A   24261.17991480  .00000055  00000+0  00000+0 0  9994
2 41328  55.1622 114.7943 0080444 238.4633 120.8479  2.00557294 63047
GSAT0211 (GALILEO 14)   
1 41549U 16030A   24260.59177685  .00000035  00000+0  00000+0 0  9991
2 41549  55.3289 239.2600 0003476 317.0067  42.9387  1.70473205 51786
INSAT-3DR               
1 41752U 16054A   24262.50466110 -.00000086  00000+0  00000+0 0  9997
2 41752   0.0612  99.3722 0012304 162.9166 351.3233  1.00271368 29417
GSAT0207 (GALILEO 15)   
1 41859U 16069A   24261.71626777  .00000042  00000+0  00000+0 0  9991
2 41859  55.1300 118.7504 0002433 326.4220  33.6755  1.70473906 48750
GSAT0212 (GALILEO 16)   
1 41860U 16069B   24260.98387163  .00000042  00000+0  00000+0 0  9994
2 41860  55.1270 118.7668 0002501  16.2676 343.8531  1.70474114 48776
GSAT0213 (GALILEO 17)   
1 41861U 16069C   24260.17913630  .00000040  00000+0  00000+0 0  9998
2 41861  55.1291 118.7960 0002175 287.2566  72.8304  1.70474491 48629
GSAT0214 (GALILEO 18)   
1 41862U 16069D   24260.91103332  .00000042  00000+0  00000+0 0  9993
2 41862  55.1277 118.7691 0001279 299.9980  60.1019  1.70474087 48768
GOES 16                 
1 41866U 16071A   24262.14830285 -.00000257  00000+0  00000+0 0  9990
2 41866   0.0847 286.6877 0000407 315.2594  93.8133  1.00271795 28706
GSAT-17                 
1 42815U 17040B   24261.39514078 -.00000266  00000+0  00000+0 0  9997
2 42815   0.0210 173.3238 0004582  71.2152 348.0129  1.00267430 26399
GSAT0215 (GALILEO 19)   
1 43055U 17079A   24261.40017849  .00000029  00000+0  00000+0 0  9998
2 43055  55.3056 239.0583 0003275 270.4553  89.4740  1.70473867 42119
GSAT0216 (GALILEO 20)   
1 43056U 17079B   24261.10522731  .00000031  00000+0  00000+0 0  9990
2 43056  55.3060 239.0663 0004717 277.3082  82.6068  1.70474024 42124
GSAT0217 (GALILEO 21)   
1 43057U 17079C   24261.32572945  .00000029  00000+0  00000+0 0  9994
2 43057  55.3044 239.0589 0004042 289.6201  70.3035  1.70473951 42119
GSAT0218 (GALILEO 22)   
1 43058U 17079D   24261.54578680  .00000028  00000+0  00000+0 0  9990
2 43058  55.3045 239.0503 0005172 274.4466  85.4601  1.70473937 42117
GOES 17                 
1 43226U 18022A   24262.54300024 -.00000100  00000+0  00000+0 0  9994
2 43226   0.0185  48.4685 0002359 161.6783 238.5828  1.00271733 24050
GSAT0221 (GALILEO 25)   
1 43564U 18060A   24255.58118826 -.00000082  00000+0  00000+0 0  9993
2 43564  57.3016 359.1451 0003650 259.1121 100.8724  1.70476191 38198
GSAT0222 (GALILEO 26)   
1 43565U 18060B   24253.45349487 -.00000085  00000+0  00000+0 0  9990
2 43565  57.3056 359.2044 0003995 223.2514 136.7426  1.70476073 38200
GSAT0219 (GALILEO 23)   
1 43566U 18060C   24256.60815980 -.00000082  00000+0  00000+0 0  9994
2 43566  57.3043 359.1213 0002700 259.8147 100.1798  1.70476234 38233
GSAT0220 (GALILEO 24)   
1 43567U 18060D   24256.82884155 -.00000082  00000+0  00000+0 0  9999
2 43567  57.3044 359.1163 0003037 257.6420 102.3489  1.70475987 38227
